[{"OBJECT_NAME":"JILIN-1 06","OBJECT_ID":"2017-074C","EPOCH":"2026-03-09T22:46:57.173376","MEAN_MOTION":15.32444387,"ECCENTRICITY":0.00061285,"INCLINATION":97.4715,"RA_OF_ASC_NODE":171.0354,"ARG_OF_PERICENTER":223.0031,"MEAN_ANOMALY":137.0732,"EPHEMERIS_TYPE":0,"CLASSIFICATION_TYPE":"U","NORAD_CAT_ID":43024,"ELEMENT_SET_NO":999,"REV_AT_EPOCH":45863,"BSTAR":0.00028431628,"MEAN_MOTION_DOT":8.833e-5,"MEAN_MOTION_DDOT":0},{"OBJECT_NAME":"STARLINK-32501","OBJECT_ID":"2024-204S","EPOCH":"2026-03-09T10:09:35.483904","MEAN_MOTION":15.30189185,"ECCENTRICITY":0.00011604,"INCLINATION":53.1613,"RA_OF_ASC_NODE":128.5371,"ARG_OF_PERICENTER":85.412,"MEAN_ANOMALY":274.7014,"EPHEMERIS_TYPE":0,"CLASSIFICATION_TYPE":"U","NORAD_CAT_ID":61890,"ELEMENT_SET_NO":999,"REV_AT_EPOCH":7505,"BSTAR":3.0193009e-5,"MEAN_MOTION_DOT":5.35e-6,"MEAN_MOTION_DDOT":0}]
